OBJECT_NAME,OBJECT_ID,EPOCH,MEAN_MOTION,ECCENTRICITY,INCLINATION,RA_OF_ASC_NODE,ARG_OF_PERICENTER,MEAN_ANOMALY,EPHEMERIS_TYPE,CLASSIFICATION_TYPE,NORAD_CAT_ID,ELEMENT_SET_NO,REV_AT_EPOCH,BSTAR,MEAN_MOTION_DOT,MEAN_MOTION_DDOT
SL-8 R/B,1991-006B,2026-06-16T04:50:00.552192,13.77505799,.002365,82.9424,96.7670,117.1802,352.1325,0,U,21088,999,77763,.37735E-4,.53E-6,0
OKEAN-3,1991-039A,2026-06-16T04:59:31.649280,15.05319678,.0014171,82.5157,241.3306,1.7716,358.3558,0,U,21397,999,87985,.16406E-3,.238E-4,0
COSMOS 2151,1991-042A,2026-06-16T03:01:33.328416,15.00435876,.0013831,82.4960,348.7051,87.1151,273.1656,0,U,21422,999,87795,.11838E-3,.1518E-4,0
SL-14 R/B,1991-042B,2026-06-16T03:21:44.055072,14.81901903,.0015441,82.4927,127.8774,278.6810,81.2655,0,U,21423,999,86765,.35402E-4,.304E-5,0
ERS-1,1991-050A,2026-06-16T01:15:52.543008,14.39517374,.0030712,98.7797,187.7229,270.4466,89.3202,0,U,21574,999,82988,.1038E-3,.279E-5,0
ARIANE 40 R/B,1991-050F,2026-06-16T03:32:30.018624,14.42956560,.0004218,98.1876,215.6049,123.7365,236.4228,0,U,21610,999,83319,.84589E-4,.241E-5,0
INTERCOSMOS 25,1991-086A,2026-06-16T04:53:37.262400,12.12194427,.1484051,82.6051,250.4049,264.5172,78.5455,0,U,21819,999,50862,.13541E-3,.679E-5,0
SL-8 R/B,1992-008B,2026-06-16T04:21:54.664416,13.75976689,.0033779,82.9263,194.5350,217.5762,210.2627,0,U,21876,999,72296,.12416E-3,.136E-5,0
SL-8 R/B,1992-020B,2026-06-16T04:34:56.803008,13.75548741,.0029794,82.9306,80.5974,25.3031,84.0424,0,U,21938,999,71467,.5887E-4,.72E-6,0
USA 81,1992-023A,2026-06-16T03:46:17.764320,14.32397942,.0002758,85.0076,74.6020,85.3753,274.7754,0,U,21949,999,10888,.4928E-4,.153E-5,0
COSMOS 2219,1992-076A,2026-06-16T04:48:25.517376,14.14098364,.0016548,71.0578,172.1350,45.7921,314.4557,0,U,22219,999,73230,.15349E-3,.246E-5,0
SL-16 R/B,1992-076B,2026-06-16T04:54:56.403936,14.16871838,.0014643,71.0004,340.8506,299.9595,233.9091,0,U,22220,999,73578,.10293E-3,.159E-5,0
COSMOS 2221,1992-080A,2026-06-16T00:03:22.396320,14.96530569,.0013177,82.5031,184.8998,216.4603,143.5723,0,U,22236,999,79549,.10593E-3,.1232E-4,0
SL-16 R/B,1992-093B,2026-06-16T04:22:39.220032,14.15461707,.0004024,71.0198,157.5008,190.2957,169.8084,0,U,22285,999,72709,-.13209E-3,-.306E-5,0
COSMOS 2228,1992-094A,2026-06-16T05:15:28.469664,14.97583719,.0016982,82.5174,142.9701,335.7605,24.2817,0,U,22286,999,79080,.15363E-3,.1825E-4,0
SL-16 R/B,1993-016B,2026-06-15T22:48:30.083616,14.15313489,.0010279,71.0085,8.8054,185.2477,174.8540,0,U,22566,999,71607,.18024E-3,.304E-5,0
COSMOS 2242,1993-024A,2026-06-16T01:03:55.206144,14.96900411,.0015459,82.5180,172.6363,340.3598,19.7027,0,U,22626,999,79510,.12379E-3,.1449E-4,0
SL-16 R/B,1993-059B,2026-06-16T03:34:23.856672,14.17248248,.0015175,70.9887,163.4933,55.6600,304.5957,0,U,22803,999,69348,.22907E-4,-.2E-7,0
ARIANE 40 R/B,1993-061H,2026-06-16T03:47:28.976064,14.32907611,.0010517,98.4819,234.0363,359.2641,0.8526,0,U,22830,999,70820,.76324E-4,.165E-5,0
COSMOS 2278,1994-023A,2026-06-16T04:27:56.830752,14.14397862,.0010607,71.0549,329.0194,244.4629,115.5397,0,U,23087,999,65873,.87538E-4,.12E-5,0
SL-16 R/B,1994-023B,2026-06-16T04:31:08.155776,14.15024732,.0002822,70.9994,224.0293,187.4356,172.6725,0,U,23088,999,66002,.1761E-3,.293E-5,0
SL-16 R/B,1994-074B,2026-06-16T01:31:58.772352,14.79501544,.0005102,97.6991,193.8317,258.3477,155.6821,0,U,23343,999,70179,.52384E-4,.342E-5,0
SL-16 R/B,1994-077B,2026-06-16T04:51:01.648224,14.15571905,.0002875,70.9808,145.2347,328.6480,31.4471,0,U,23405,999,63017,.4471E-4,.4E-6,0
ARIANE 40+ R/B,1995-021B,2026-06-16T05:19:15.547008,14.39832890,.0006392,98.4411,237.3105,196.6304,231.0959,0,U,23561,999,63342,.84685E-4,.222E-5,0
SL-16 R/B,1995-058B,2026-06-15T20:39:08.213472,14.15507699,.00137009,71.0219,334.1439,322.3325,37.6837,0,U,23705,999,58174,.16732343E-3,.28E-5,0
SL-16 R/B,1996-051B,2026-06-16T04:21:23.715072,14.12445524,.0015387,70.7640,326.7770,338.4051,21.6418,0,U,24298,999,53555,.8314E-4,.104E-5,0
ORBVIEW 2 (SEASTAR),1997-037A,2026-06-16T04:24:21.655872,14.35552850,.0003161,98.8686,334.1748,118.2016,241.9488,0,U,24883,999,52260,.74178E-4,.167E-5,0
SL-16 R/B,1998-043G,2026-06-16T02:24:00.279072,14.26068463,.0010943,98.8363,121.2498,89.1492,271.0942,0,U,25400,999,45301,.32965E-4,.33E-6,0
SL-16 R/B,1998-045B,2026-06-16T04:14:02.408064,14.16203548,.0009443,71.0118,334.4556,242.7916,117.2245,0,U,25407,999,44104,-.10159E-3,-.249E-5,0
ISS (ZARYA),1998-067A,2026-06-16T02:13:48.364032,15.49253146,.0004806,51.6337,305.5091,191.3253,168.7628,0,U,25544,999,57158,.14355E-3,.7536E-4,0
CZ-4B R/B,1999-025C,2026-06-16T00:13:46.830720,14.18283301,.003811,98.6484,208.8777,62.9583,359.4974,0,U,25732,999,40210,.4493E-4,.51E-6,0
OKEAN-O,1999-039A,2026-06-15T22:16:37.589376,14.80465876,.0001656,97.9318,225.7406,72.9952,287.1442,0,U,25860,999,44892,.73445E-4,.51E-5,0
SL-16 R/B,1999-039B,2026-06-16T03:41:22.473312,14.81844296,.0013529,97.9838,226.0197,300.6154,59.3724,0,U,25861,999,45144,.59739E-4,.419E-5,0
DELTA 2 R/B,1999-041E,2026-06-15T23:19:54.818400,14.12014406,.0500852,51.7658,268.6505,278.4250,76.0231,0,U,25876,999,37691,.13237E-3,.587E-5,0
HELIOS 1B,1999-064A,2026-06-16T04:04:44.444640,14.88004439,.0002484,98.1616,72.2803,92.7424,267.4076,0,U,25977,999,69990,.13759E-3,.1204E-4,0
TERRA,1999-068A,2026-06-16T03:07:54.660000,14.61102329,.0001501,97.9457,216.7186,193.3628,244.8059,0,U,25994,999,40945,.73126E-4,.315E-5,0
SL-16 R/B,2000-006B,2026-06-15T22:26:04.883136,14.15834105,.0015478,71.0022,251.2584,24.8971,335.2895,0,U,26070,999,36246,-.32468E-4,-.112E-5,0
TITAN 4B R/B,2000-047B,2026-06-16T04:46:56.985024,15.10192595,.0045718,67.9881,123.3538,288.1804,71.4371,0,U,26474,999,40778,.16032E-3,.2549E-4,0
ENVISAT,2002-009A,2026-06-16T03:02:57.418080,14.39064578,.0001348,98.3834,118.4690,88.8123,282.4947,0,U,27386,999,27333,.34283E-4,.63E-6,0
IDEFIX & ARIANE 42P R/B,2002-021B,2026-06-16T01:56:22.180128,14.31081613,.0010573,98.5943,104.5759,257.5686,102.4314,0,U,27422,999,25809,.79959E-4,.167E-5,0
AQUA,2002-022A,2026-06-16T04:13:32.848896,14.62156853,.0001137,98.4277,136.4387,52.8517,68.9689,0,U,27424,999,28312,.13949E-3,.652E-5,0
CZ-4B R/B,2002-024C,2026-06-16T02:34:28.481376,14.14564288,.0051188,98.8700,219.9345,103.2428,311.0705,0,U,27432,999,24315,.43966E-4,.42E-6,0
MIDORI II (ADEOS-II),2002-056A,2026-06-16T03:47:34.904832,14.29349090,.0002216,98.7878,126.4091,78.4179,281.7251,0,U,27597,999,22436,.96319E-4,.2E-5,0
H-2A R/B,2002-056E,2026-06-15T21:30:19.857888,14.33821544,.0069132,98.3311,123.6176,228.4736,196.6981,0,U,27601,999,22818,.66595E-4,.148E-5,0
CZ-4B R/B,2003-049C,2026-06-15T23:50:37.383936,14.55099496,.0046997,98.6895,165.7924,292.3184,67.3034,0,U,28059,999,20089,.664E-4,.238E-5,0
CZ-2C R/B,2004-012C,2026-06-16T05:01:40.482048,15.78826596,.0009319,97.7089,242.7586,287.3312,72.6934,0,U,28222,999,21974,.4967E-3,.87941E-3,0
SL-16 R/B,2004-021B,2026-06-16T00:43:02.592768,14.14608824,.0007321,71.0010,26.1181,256.4234,103.6073,0,U,28353,999,13674,-.1109E-3,-.261E-5,0
CZ-4B R/B,2004-035C,2026-06-16T02:04:43.428864,15.30614013,.0029995,97.3361,200.1724,341.9805,18.0370,0,U,28415,999,19495,.22601E-3,.6702E-4,0
CZ-2C R/B,2004-046B,2026-06-15T17:15:26.082432,14.27026214,.01384205,98.1946,75.5916,224.6420,134.3551,0,U,28480,999,12248,.37822113E-4,.6E-6,0
ARIANE 5 R/B,2004-049H,2026-06-16T04:29:34.480032,14.85447925,.0084562,98.2719,339.4014,32.6446,327.9955,0,U,28499,999,16041,.68225E-4,.562E-5,0
CZ-2D R/B,2005-024B,2026-06-16T00:11:24.511776,15.69437985,.0003518,97.3475,186.3772,58.2633,301.8971,0,U,28738,999,15515,.41453E-3,.4869E-3,0
ALOS (DAICHI),2006-002A,2026-06-16T03:18:08.699616,14.70048498,.0001489,98.1323,122.7082,57.3784,302.7566,0,U,28931,999,8794,.15726E-3,.894E-5,0
H-2A R/B,2006-002B,2026-06-15T22:24:56.058624,15.18046737,.0049573,98.2559,322.6491,266.6950,92.8610,0,U,28932,999,10933,.2612E-3,.5405E-4,0
RESURS-DK 1,2006-021A,2026-06-15T21:52:42.684096,15.13214396,.0006926,69.9341,342.8543,292.9934,67.0501,0,U,29228,999,10238,.1244E-3,.2107E-4,0
CZ-4B R/B,2006-046C,2026-06-16T00:00:20.044800,15.17776889,.0031007,97.5450,211.6108,286.9796,72.8040,0,U,29507,999,7495,.18206E-3,.3652E-4,0
CZ-2C R/B,2007-010B,2026-06-16T03:27:29.922048,14.20275987,.0059087,98.4098,275.5460,9.1681,351.0561,0,U,31114,999,99369,.47337E-4,.62E-6,0
COSMO-SKYMED 1,2007-023A,2026-06-16T04:46:58.473696,14.97094839,.0001241,97.8840,359.0466,99.2457,260.8905,0,U,31598,999,2964,.19352E-3,.2172E-4,0
COSMOS 2428,2007-029A,2026-06-15T22:33:49.495680,14.12928323,.0007137,70.9370,357.0961,137.3144,222.8533,0,U,31792,999,97797,-.38741E-4,-.12E-5,0
SL-16 R/B,2007-029B,2026-06-16T05:05:36.766176,14.14854787,.0002305,70.9768,325.2777,261.8401,270.6376,0,U,31793,999,97930,.98849E-4,.143E-5,0
KORONAS-FOTON,2009-003A,2026-06-16T01:01:28.848864,15.45703293,.0011557,82.4281,173.4533,151.3433,208.8453,0,U,33504,999,96092,.18507E-3,.8995E-4,0
CZ-2C R/B,2011-030B,2026-06-16T03:41:32.628768,14.81469274,.005314,97.8655,122.5586,31.2689,341.5259,0,U,37731,999,80467,.1439E-3,.11E-4,0
H-2A R/B,2012-025E,2026-06-15T22:51:58.673088,14.95714694,.0043717,98.4829,141.9966,353.4258,6.6382,0,U,38341,999,76290,.26821E-3,.2973E-4,0
SHIJIAN-16 (SJ-16),2013-057A,2026-06-16T04:00:25.305984,14.92605969,.0016854,74.9725,358.6157,233.2092,126.7551,0,U,39358,999,68619,.11678E-3,.1175E-4,0
SL-4 R/B,2014-021B,2026-06-15T19:58:43.847616,15.41930073,.00913059,51.6036,217.4086,101.0610,260.0660,0,U,39679,999,67140,.17704676E-3,.843E-4,0
ALOS-2,2014-029A,2026-06-16T04:36:55.494144,14.79467814,.000164,97.9225,264.3695,92.4522,267.6877,0,U,39766,999,65143,.13523E-3,.959E-5,0
YAOGAN-29,2015-069A,2026-06-16T05:35:53.630304,14.83083889,.0002627,98.0023,195.8643,56.0452,304.1011,0,U,41038,999,57048,.44204E-4,.306E-5,0
ASTRO-H (HITOMI),2016-012A,2026-06-15T23:26:49.890048,15.10506251,.000978,30.9996,82.0029,241.7566,118.2085,0,U,41337,999,56710,.12043E-3,.2131E-4,0
